[{"OBJECT_NAME":"OBJECT L","OBJECT_ID":"2023-085L","EPOCH":"2026-03-09T23:02:21.999840","MEAN_MOTION":15.29079976,"ECCENTRICITY":0.0005428,"INCLINATION":97.486,"RA_OF_ASC_NODE":178.8598,"ARG_OF_PERICENTER":50.8528,"MEAN_ANOMALY":309.3193,"EPHEMERIS_TYPE":0,"CLASSIFICATION_TYPE":"U","NORAD_CAT_ID":57014,"ELEMENT_SET_NO":999,"REV_AT_EPOCH":15144,"BSTAR":0.00063462603,"MEAN_MOTION_DOT":0.00017871,"MEAN_MOTION_DDOT":0},{"OBJECT_NAME":"STARLINK-35366","OBJECT_ID":"2025-263AD","EPOCH":"2026-03-09T03:16:21.009792","MEAN_MOTION":15.27591667,"ECCENTRICITY":0.00072204,"INCLINATION":43.0014,"RA_OF_ASC_NODE":353.8669,"ARG_OF_PERICENTER":234.1942,"MEAN_ANOMALY":125.8239,"EPHEMERIS_TYPE":0,"CLASSIFICATION_TYPE":"U","NORAD_CAT_ID":66512,"ELEMENT_SET_NO":999,"REV_AT_EPOCH":1881,"BSTAR":0.0010385692,"MEAN_MOTION_DOT":0.00028456,"MEAN_MOTION_DDOT":0}]
